CCSDS_OMM_VERS = 2.0
CREATION_DATE  = 
ORIGINATOR     = 

OBJECT_NAME    = SL-14 R/B
OBJECT_ID      = 1991-042B
CENTER_NAME    = EARTH
REF_FRAME      = TEME
TIME_SYSTEM    = UTC
MEAN_ELEMENT_THEORY = SGP/SGP4

EPOCH          = 2025-12-06T15:16:55.810848
MEAN_MOTION    = 14.81730223
ECCENTRICITY   = .0016899
INCLINATION    = 82.4919
RA_OF_ASC_NODE = 307.4464
ARG_OF_PERICENTER = 181.6134
MEAN_ANOMALY   = 178.5028

EPHEMERIS_TYPE = 0
CLASSIFICATION_TYPE = U
NORAD_CAT_ID   = 21423
ELEMENT_SET_NO = 999
REV_AT_EPOCH   = 83929
BSTAR          = .1061856E-3
MEAN_MOTION_DOT = .862E-5
MEAN_MOTION_DDOT = 0

CCSDS_OMM_VERS = 2.0
CREATION_DATE  = 
ORIGINATOR     = 

OBJECT_NAME    = ERS-1
OBJECT_ID      = 1991-050A
CENTER_NAME    = EARTH
REF_FRAME      = TEME
TIME_SYSTEM    = UTC
MEAN_ELEMENT_THEORY = SGP/SGP4

EPOCH          = 2025-12-06T14:52:12.274464
MEAN_MOTION    = 14.39357363
ECCENTRICITY   = .00328617
INCLINATION    = 98.7906
RA_OF_ASC_NODE = 351.5213
ARG_OF_PERICENTER = 117.5941
MEAN_ANOMALY   = 242.8589

EPHEMERIS_TYPE = 0
CLASSIFICATION_TYPE = U
NORAD_CAT_ID   = 21574
ELEMENT_SET_NO = 999
REV_AT_EPOCH   = 80234
BSTAR          = .20904938E-3
MEAN_MOTION_DOT = .608E-5
MEAN_MOTION_DDOT = 0

CCSDS_OMM_VERS = 2.0
CREATION_DATE  = 
ORIGINATOR     = 

OBJECT_NAME    = ARIANE 40 R/B
OBJECT_ID      = 1991-050F
CENTER_NAME    = EARTH
REF_FRAME      = TEME
TIME_SYSTEM    = UTC
MEAN_ELEMENT_THEORY = SGP/SGP4

EPOCH          = 2025-12-06T14:44:41.313120
MEAN_MOTION    = 14.42805760
ECCENTRICITY   = .00031687
INCLINATION    = 98.2173
RA_OF_ASC_NODE = 31.2657
ARG_OF_PERICENTER = 18.5223
MEAN_ANOMALY   = 341.6082

EPHEMERIS_TYPE = 0
CLASSIFICATION_TYPE = U
NORAD_CAT_ID   = 21610
ELEMENT_SET_NO = 999
REV_AT_EPOCH   = 80557
BSTAR          = .23405367E-3
MEAN_MOTION_DOT = .739E-5
MEAN_MOTION_DDOT = 0

CCSDS_OMM_VERS = 2.0
CREATION_DATE  = 
ORIGINATOR     = 

OBJECT_NAME    = INTERCOSMOS 25
OBJECT_ID      = 1991-086A
CENTER_NAME    = EARTH
REF_FRAME      = TEME
TIME_SYSTEM    = UTC
MEAN_ELEMENT_THEORY = SGP/SGP4

EPOCH          = 2025-12-06T12:37:17.519808
MEAN_MOTION    = 12.11697468
ECCENTRICITY   = .14868779
INCLINATION    = 82.6071
RA_OF_ASC_NODE = 6.3334
ARG_OF_PERICENTER = 317.8003
MEAN_ANOMALY   = 31.7440

EPHEMERIS_TYPE = 0
CLASSIFICATION_TYPE = U
NORAD_CAT_ID   = 21819
ELEMENT_SET_NO = 999
REV_AT_EPOCH   = 48540
BSTAR          = .61729856E-3
MEAN_MOTION_DOT = .3109E-4
MEAN_MOTION_DDOT = 0

CCSDS_OMM_VERS = 2.0
CREATION_DATE  = 
ORIGINATOR     = 

OBJECT_NAME    = SL-8 R/B
OBJECT_ID      = 1992-008B
CENTER_NAME    = EARTH
REF_FRAME      = TEME
TIME_SYSTEM    = UTC
MEAN_ELEMENT_THEORY = SGP/SGP4

EPOCH          = 2025-12-06T10:39:47.031840
MEAN_MOTION    = 13.75957033
ECCENTRICITY   = .00355502
INCLINATION    = 82.9263
RA_OF_ASC_NODE = 337.1297
ARG_OF_PERICENTER = 37.0288
MEAN_ANOMALY   = 116.5523

EPHEMERIS_TYPE = 0
CLASSIFICATION_TYPE = U
NORAD_CAT_ID   = 21876
ELEMENT_SET_NO = 999
REV_AT_EPOCH   = 69659
BSTAR          = .17988011E-3
MEAN_MOTION_DOT = .19E-5
MEAN_MOTION_DDOT = 0

CCSDS_OMM_VERS = 2.0
CREATION_DATE  = 
ORIGINATOR     = 

OBJECT_NAME    = SL-8 R/B
OBJECT_ID      = 1992-020B
CENTER_NAME    = EARTH
REF_FRAME      = TEME
TIME_SYSTEM    = UTC
MEAN_ELEMENT_THEORY = SGP/SGP4

EPOCH          = 2025-12-06T15:46:55.026912
MEAN_MOTION    = 13.75525431
ECCENTRICITY   = .00285124
INCLINATION    = 82.9312
RA_OF_ASC_NODE = 222.8336
ARG_OF_PERICENTER = 195.3290
MEAN_ANOMALY   = 223.4676

EPHEMERIS_TYPE = 0
CLASSIFICATION_TYPE = U
NORAD_CAT_ID   = 21938
ELEMENT_SET_NO = 999
REV_AT_EPOCH   = 68834
BSTAR          = .10777579E-3
MEAN_MOTION_DOT = .119E-5
MEAN_MOTION_DDOT = 0

CCSDS_OMM_VERS = 2.0
CREATION_DATE  = 
ORIGINATOR     = 

OBJECT_NAME    = USA 81
OBJECT_ID      = 1992-023A
CENTER_NAME    = EARTH
REF_FRAME      = TEME
TIME_SYSTEM    = UTC
MEAN_ELEMENT_THEORY = SGP/SGP4

EPOCH          = 2025-12-06T14:33:58.889376
MEAN_MOTION    = 14.32323670
ECCENTRICITY   = .00016689
INCLINATION    = 85.0086
RA_OF_ASC_NODE = 185.1131
ARG_OF_PERICENTER = 62.3790
MEAN_ANOMALY   = 297.7572

EPHEMERIS_TYPE = 0
CLASSIFICATION_TYPE = U
NORAD_CAT_ID   = 21949
ELEMENT_SET_NO = 999
REV_AT_EPOCH   = 8146
BSTAR          = .11683926E-3
MEAN_MOTION_DOT = .335E-5
MEAN_MOTION_DDOT = 0

CCSDS_OMM_VERS = 2.0
CREATION_DATE  = 
ORIGINATOR     = 

OBJECT_NAME    = COSMOS 2219
OBJECT_ID      = 1992-076A
CENTER_NAME    = EARTH
REF_FRAME      = TEME
TIME_SYSTEM    = UTC
MEAN_ELEMENT_THEORY = SGP/SGP4

EPOCH          = 2025-12-06T15:23:05.176032
MEAN_MOTION    = 14.14063206
ECCENTRICITY   = .00189463
INCLINATION    = 71.0589
RA_OF_ASC_NODE = 212.5816
ARG_OF_PERICENTER = 335.0833
MEAN_ANOMALY   = 24.9372

EPHEMERIS_TYPE = 0
CLASSIFICATION_TYPE = U
NORAD_CAT_ID   = 22219
ELEMENT_SET_NO = 999
REV_AT_EPOCH   = 70522
BSTAR          = -.45322226E-4
MEAN_MOTION_DOT = -.134E-5
MEAN_MOTION_DDOT = 0

CCSDS_OMM_VERS = 2.0
CREATION_DATE  = 
ORIGINATOR     = 

OBJECT_NAME    = SL-16 R/B
OBJECT_ID      = 1992-076B
CENTER_NAME    = EARTH
REF_FRAME      = TEME
TIME_SYSTEM    = UTC
MEAN_ELEMENT_THEORY = SGP/SGP4

EPOCH          = 2025-12-06T14:02:24.050112
MEAN_MOTION    = 14.16841593
ECCENTRICITY   = .00150099
INCLINATION    = 71.0014
RA_OF_ASC_NODE = 24.4971
ARG_OF_PERICENTER = 242.5410
MEAN_ANOMALY   = 229.9604

EPHEMERIS_TYPE = 0
CLASSIFICATION_TYPE = U
NORAD_CAT_ID   = 22220
ELEMENT_SET_NO = 999
REV_AT_EPOCH   = 70864
BSTAR          = -.1562408E-4
MEAN_MOTION_DOT = -.79E-6
MEAN_MOTION_DDOT = 0

CCSDS_OMM_VERS = 2.0
CREATION_DATE  = 
ORIGINATOR     = 

OBJECT_NAME    = COSMOS 2221
OBJECT_ID      = 1992-080A
CENTER_NAME    = EARTH
REF_FRAME      = TEME
TIME_SYSTEM    = UTC
MEAN_ELEMENT_THEORY = SGP/SGP4

EPOCH          = 2025-12-06T14:18:41.942592
MEAN_MOTION    = 14.95725947
ECCENTRICITY   = .00156179
INCLINATION    = 82.5040
RA_OF_ASC_NODE = 8.2058
ARG_OF_PERICENTER = 140.7443
MEAN_ANOMALY   = 219.4915

EPHEMERIS_TYPE = 0
CLASSIFICATION_TYPE = U
NORAD_CAT_ID   = 22236
ELEMENT_SET_NO = 999
REV_AT_EPOCH   = 76687
BSTAR          = .27624745E-3
MEAN_MOTION_DOT = .3108E-4
MEAN_MOTION_DDOT = 0

CCSDS_OMM_VERS = 2.0
CREATION_DATE  = 
ORIGINATOR     = 

OBJECT_NAME    = SL-16 R/B
OBJECT_ID      = 1992-093B
CENTER_NAME    = EARTH
REF_FRAME      = TEME
TIME_SYSTEM    = UTC
MEAN_ELEMENT_THEORY = SGP/SGP4

EPOCH          = 2025-12-06T14:17:48.562080
MEAN_MOTION    = 14.15426000
ECCENTRICITY   = .00020242
INCLINATION    = 71.0202
RA_OF_ASC_NODE = 199.6933
ARG_OF_PERICENTER = 91.0409
MEAN_ANOMALY   = 269.0946

EPHEMERIS_TYPE = 0
CLASSIFICATION_TYPE = U
NORAD_CAT_ID   = 22285
ELEMENT_SET_NO = 999
REV_AT_EPOCH   = 69998
BSTAR          = .71107837E-4
MEAN_MOTION_DOT = .91E-6
MEAN_MOTION_DDOT = 0

CCSDS_OMM_VERS = 2.0
CREATION_DATE  = 
ORIGINATOR     = 

OBJECT_NAME    = COSMOS 2228
OBJECT_ID      = 1992-094A
CENTER_NAME    = EARTH
REF_FRAME      = TEME
TIME_SYSTEM    = UTC
MEAN_ELEMENT_THEORY = SGP/SGP4

EPOCH          = 2025-12-06T14:33:20.220192
MEAN_MOTION    = 14.96685624
ECCENTRICITY   = .00162889
INCLINATION    = 82.5173
RA_OF_ASC_NODE = 326.4029
ARG_OF_PERICENTER = 253.8567
MEAN_ANOMALY   = 106.0863

EPHEMERIS_TYPE = 0
CLASSIFICATION_TYPE = U
NORAD_CAT_ID   = 22286
ELEMENT_SET_NO = 999
REV_AT_EPOCH   = 76213
BSTAR          = .33746936E-3
MEAN_MOTION_DOT = .3886E-4
MEAN_MOTION_DDOT = 0

